start=new Date('2021-12-18T00:00:00.000Z').valueOf();
sats=[{"ELEMENT_SET_NO":"999","DECAY_DATE":null,"SITE":"AFETR","ECCENTRICITY":"0.00027340","REF_FRAME":"TEME","PERIOD":"95.592","EPHEMERIS_TYPE":"0","BSTAR":"0.00000260220000","MEAN_MOTION_DOT":"-0.00000243","MEAN_MOTION_DDOT":"0.0000000000000","LAUNCH_DATE":"2021-04-07","TIME_SYSTEM":"UTC","MEAN_MOTION":"15.06399957","COUNTRY_CODE":"US","INCLINATION":"53.0571","TLE_LINE1":"1 48113U 21027X   21351.79241016 -.00000243  00000-0  26022-5 0  9998","EPOCH":"2021-12-17T19:01:04.237824","APOAPSIS":"549.107","CENTER_NAME":"EARTH","REV_AT_EPOCH":"3985","NORAD_CAT_ID":"48113","MEAN_ANOMALY":"296.5290","MEAN_ELEMENT_THEORY":"SGP4","PERIAPSIS":"545.320","OBJECT_ID":"2021-027X","ARG_OF_PERICENTER":"63.5979","RCS_SIZE":"LARGE","CLASSIFICATION_TYPE":"U","RA_OF_ASC_NODE":"257.9557","OBJECT_TYPE":"PAYLOAD","GP_ID":"191902700","OBJECT_NAME":"STARLINK-2450","FILE":"3243045","TLE_LINE2":"2 48113  53.0571 257.9557 0002734  63.5979 296.5290 15.06399957 39857","SEMIMAJOR_AXIS":"6925.349"},{"CLASSIFICATION_TYPE":"U","ARG_OF_PERICENTER":"61.4446","RCS_SIZE":"LARGE","OBJECT_ID":"2021-027Y","RA_OF_ASC_NODE":"252.5430","GP_ID":"191902952","OBJECT_TYPE":"PAYLOAD","TLE_LINE2":"2 48114  53.0564 252.5430 0002524  61.4446 298.6796 15.06392490 39954","FILE":"3243045","SEMIMAJOR_AXIS":"6925.372","OBJECT_NAME":"STARLINK-2451","NORAD_CAT_ID":"48114","REV_AT_EPOCH":"3995","CENTER_NAME":"EARTH","MEAN_ANOMALY":"298.6796","PERIAPSIS":"545.489","MEAN_ELEMENT_THEORY":"SGP4","TIME_SYSTEM":"UTC","LAUNCH_DATE":"2021-04-07","MEAN_MOTION":"15.06392490","TLE_LINE1":"1 48114U 21027Y   21351.88592382 -.00001451  00000-0 -78520-4 0  9996","EPOCH":"2021-12-17T21:15:43.818048","INCLINATION":"53.0564","COUNTRY_CODE":"US","APOAPSIS":"548.985","SITE":"AFETR","ELEMENT_SET_NO":"999","DECAY_DATE":null,"REF_FRAME":"TEME","ECCENTRICITY":"0.00025240","EPHEMERIS_TYPE":"0","BSTAR":"-0.00007852000000","PERIOD":"95.593","MEAN_MOTION_DOT":"-0.00001451","MEAN_MOTION_DDOT":"0.0000000000000"},{"TIME_SYSTEM":"UTC","LAUNCH_DATE":"2021-04-07","MEAN_MOTION":"15.06404331","TLE_LINE1":"1 48115U 21027Z   21351.84767436  .00000817  00000-0  73751-4 0  9991","EPOCH":"2021-12-17T20:20:39.064704","INCLINATION":"53.0548","COUNTRY_CODE":"US","APOAPSIS":"549.161","SITE":"AFETR","DECAY_DATE":null,"ELEMENT_SET_NO":"999","REF_FRAME":"TEME","ECCENTRICITY":"0.00028310","EPHEMERIS_TYPE":"0","BSTAR":"0.00007375100000","PERIOD":"95.592","MEAN_MOTION_DOT":"0.00000817","MEAN_MOTION_DDOT":"0.0000000000000","CLASSIFICATION_TYPE":"U","RCS_SIZE":"LARGE","ARG_OF_PERICENTER":"68.7729","OBJECT_ID":"2021-027Z","RA_OF_ASC_NODE":"247.7015","GP_ID":"191903203","OBJECT_TYPE":"PAYLOAD","TLE_LINE2":"2 48115  53.0548 247.7015 0002831  68.7729 291.3562 15.06404331 40015","SEMIMAJOR_AXIS":"6925.335","FILE":"3243045","OBJECT_NAME":"STARLINK-2452","NORAD_CAT_ID":"48115","REV_AT_EPOCH":"4001","CENTER_NAME":"EARTH","MEAN_ANOMALY":"291.3562","PERIAPSIS":"545.240","MEAN_ELEMENT_THEORY":"SGP4"},{"MEAN_ELEMENT_THEORY":"SGP4","PERIAPSIS":"545.600","CENTER_NAME":"EARTH","NORAD_CAT_ID":"48116","REV_AT_EPOCH":"3976","MEAN_ANOMALY":"295.7610","OBJECT_TYPE":"PAYLOAD","GP_ID":"191901951","OBJECT_NAME":"STARLINK-2454","FILE":"3243045","TLE_LINE2":"2 48116  53.0525 260.9556 0002312  64.3618 295.7610 15.06404116 39764","SEMIMAJOR_AXIS":"6925.336","RCS_SIZE":"LARGE","ARG_OF_PERICENTER":"64.3618","OBJECT_ID":"2021-027AA","CLASSIFICATION_TYPE":"U","RA_OF_ASC_NODE":"260.9556","PERIOD":"95.592","BSTAR":"0.00011921000000","EPHEMERIS_TYPE":"0","MEAN_MOTION_DDOT":"0.0000000000000","MEAN_MOTION_DOT":"0.00001494","DECAY_DATE":null,"ELEMENT_SET_NO":"999","SITE":"AFETR","ECCENTRICITY":"0.00023120","REF_FRAME":"TEME","COUNTRY_CODE":"US","EPOCH":"2021-12-17T03:00:21.874752","TLE_LINE1":"1 48116U 21027AA  21351.12525318  .00001494  00000-0  11921-3 0  9996","INCLINATION":"53.0525","APOAPSIS":"548.802","LAUNCH_DATE":"2021-04-07","TIME_SYSTEM":"UTC","MEAN_MOTION":"15.06404116"},{"PERIAPSIS":"545.360","MEAN_ELEMENT_THEORY":"SGP4","REV_AT_EPOCH":"4016","NORAD_CAT_ID":"48117","CENTER_NAME":"EARTH","MEAN_ANOMALY":"294.7343","GP_ID":"191902201","OBJECT_TYPE":"PAYLOAD","TLE_LINE2":"2 48117  53.0549 237.4929 0002710  65.3928 294.7343 15.06392512 40165","FILE":"3243045","SEMIMAJOR_AXIS":"6925.372","OBJECT_NAME":"STARLINK-2455","CLASSIFICATION_TYPE":"U","OBJECT_ID":"2021-027AB","ARG_OF_PERICENTER":"65.3928","RCS_SIZE":"LARGE","RA_OF_ASC_NODE":"237.4929","EPHEMERIS_TYPE":"0","BSTAR":"0.00002283900000","PERIOD":"95.593","MEAN_MOTION_DOT":"0.00000058","MEAN_MOTION_DDOT":"0.0000000000000","SITE":"AFETR","ELEMENT_SET_NO":"999","DECAY_DATE":null,"REF_FRAME":"TEME","ECCENTRICITY":"0.00027100","INCLINATION":"53.0549","EPOCH":"2021-12-17T21:27:02.756160","TLE_LINE1":"1 48117U 21027AB  21351.89378190  .00000058  00000-0  22839-4 0  9991","COUNTRY_CODE":"US","APOAPSIS":"549.113","TIME_SYSTEM":"UTC","LAUNCH_DATE":"2021-04-07","MEAN_MOTION":"15.06392512"},{"LAUNCH_DATE":"2021-04-07","TIME_SYSTEM":"UTC","MEAN_MOTION":"15.06396411","COUNTRY_CODE":"US","EPOCH":"2021-12-17T20:07:25.311360","TLE_LINE1":"1 48118U 21027AC  21351.83848740 -.00000380  00000-0 -65919-5 0  9996","INCLINATION":"53.0544","APOAPSIS":"548.968","DECAY_DATE":null,"ELEMENT_SET_NO":"999","SITE":"AFETR","ECCENTRICITY":"0.00025180","REF_FRAME":"TEME","PERIOD":"95.592","EPHEMERIS_TYPE":"0","BSTAR":"-0.00000659190000","MEAN_MOTION_DDOT":"0.0000000000000","MEAN_MOTION_DOT":"-0.00000380","ARG_OF_PERICENTER":"70.7531","RCS_SIZE":"LARGE","OBJECT_ID":"2021-027AC","CLASSIFICATION_TYPE":"U","RA_OF_ASC_NODE":"237.7370","OBJECT_TYPE":"PAYLOAD","GP_ID":"191903452","OBJECT_NAME":"STARLINK-2458","FILE":"3243045","TLE_LINE2":"2 48118  53.0544 237.7370 0002518  70.7531 289.3730 15.06396411 40151","SEMIMAJOR_AXIS":"6925.360","CENTER_NAME":"EARTH","NORAD_CAT_ID":"48118","REV_AT_EPOCH":"4015","MEAN_ANOMALY":"289.3730","MEAN_ELEMENT_THEORY":"SGP4","PERIAPSIS":"545.481"},{"OBJECT_TYPE":"PAYLOAD","GP_ID":"191903703","OBJECT_NAME":"STARLINK-2459","TLE_LINE2":"2 48119  53.0544 237.7517 0002428  72.8210 287.3045 15.06396778 40144","FILE":"3243045","SEMIMAJOR_AXIS":"6925.358","OBJECT_ID":"2021-027AD","RCS_SIZE":"LARGE","ARG_OF_PERICENTER":"72.8210","CLASSIFICATION_TYPE":"U","RA_OF_ASC_NODE":"237.7517","MEAN_ELEMENT_THEORY":"SGP4","PERIAPSIS":"545.542","CENTER_NAME":"EARTH","REV_AT_EPOCH":"4014","NORAD_CAT_ID":"48119","MEAN_ANOMALY":"287.3045","COUNTRY_CODE":"US","INCLINATION":"53.0544","TLE_LINE1":"1 48119U 21027AD  21351.83480086  .00000237  00000-0  34869-4 0  9990","EPOCH":"2021-12-17T20:02:06.794304","APOAPSIS":"548.905","LAUNCH_DATE":"2021-04-07","TIME_SYSTEM":"UTC","MEAN_MOTION":"15.06396778","PERIOD":"95.592","EPHEMERIS_TYPE":"0","BSTAR":"0.00003486900000","MEAN_MOTION_DOT":"0.00000237","MEAN_MOTION_DDOT":"0.0000000000000","ELEMENT_SET_NO":"999","DECAY_DATE":null,"SITE":"AFETR","ECCENTRICITY":"0.00024280","REF_FRAME":"TEME"},{"MEAN_MOTION":"15.06403769","LAUNCH_DATE":"2021-04-07","TIME_SYSTEM":"UTC","APOAPSIS":"549.342","COUNTRY_CODE":"US","TLE_LINE1":"1 48120U 21027AE  21351.77397882 -.00000544  00000-0 -17569-4 0  9997","EPOCH":"2021-12-17T18:34:31.770048","INCLINATION":"53.0563","ECCENTRICITY":"0.00030900","REF_FRAME":"TEME","ELEMENT_SET_NO":"999","DECAY_DATE":null,"SITE":"AFETR","MEAN_MOTION_DDOT":"0.0000000000000","MEAN_MOTION_DOT":"-0.00000544","PERIOD":"95.592","BSTAR":"-0.00001756900000","EPHEMERIS_TYPE":"0","RA_OF_ASC_NODE":"258.0375","ARG_OF_PERICENTER":"63.5573","RCS_SIZE":"LARGE","OBJECT_ID":"2021-027AE","CLASSIFICATION_TYPE":"U","OBJECT_NAME":"STARLINK-2460","SEMIMAJOR_AXIS":"6925.337","TLE_LINE2":"2 48120  53.0563 258.0375 0003090  63.5573 296.5732 15.06403769 39872","FILE":"3243045","OBJECT_TYPE":"PAYLOAD","GP_ID":"191902451","MEAN_ANOMALY":"296.5732","CENTER_NAME":"EARTH","NORAD_CAT_ID":"48120","REV_AT_EPOCH":"3987","MEAN_ELEMENT_THEORY":"SGP4","PERIAPSIS":"545.062"},{"MEAN_MOTION_DDOT":"0.0000000000000","MEAN_MOTION_DOT":"0.00000183","PERIOD":"95.592","BSTAR":"0.00003123400000","EPHEMERIS_TYPE":"0","ECCENTRICITY":"0.00026130","REF_FRAME":"TEME","DECAY_DATE":null,"ELEMENT_SET_NO":"999","SITE":"AFETR","APOAPSIS":"549.020","COUNTRY_CODE":"US","TLE_LINE1":"1 48121U 21027AF  21351.87810551  .00000183  00000-0  31234-4 0  9994","EPOCH":"2021-12-17T21:04:28.316064","INCLINATION":"53.0556","MEAN_MOTION":"15.06401076","LAUNCH_DATE":"2021-04-07","TIME_SYSTEM":"UTC","MEAN_ELEMENT_THEORY":"SGP4","PERIAPSIS":"545.401","MEAN_ANOMALY":"290.0731","CENTER_NAME":"EARTH","NORAD_CAT_ID":"48121","REV_AT_EPOCH":"4001","OBJECT_NAME":"STARLINK-2462","TLE_LINE2":"2 48121  53.0556 247.5693 0002613  70.0539 290.0731 15.06401076 40011","SEMIMAJOR_AXIS":"6925.345","FILE":"3243045","OBJECT_TYPE":"PAYLOAD","GP_ID":"191902701","RA_OF_ASC_NODE":"247.5693","RCS_SIZE":"LARGE","ARG_OF_PERICENTER":"70.0539","OBJECT_ID":"2021-027AF","CLASSIFICATION_TYPE":"U"},{"MEAN_MOTION_DDOT":"0.0000000000000","MEAN_MOTION_DOT":"0.00000005","PERIOD":"95.592","EPHEMERIS_TYPE":"0","BSTAR":"0.00001925700000","ECCENTRICITY":"0.00024200","REF_FRAME":"TEME","DECAY_DATE":null,"ELEMENT_SET_NO":"999","SITE":"AFETR","APOAPSIS":"548.879","COUNTRY_CODE":"US","INCLINATION":"53.0551","TLE_LINE1":"1 48122U 21027AG  21351.87946545  .00000005  00000-0  19257-4 0  9992","EPOCH":"2021-12-17T21:06:25.814880","MEAN_MOTION":"15.06403519","LAUNCH_DATE":"2021-04-07","TIME_SYSTEM":"UTC","MEAN_ELEMENT_THEORY":"SGP4","PERIAPSIS":"545.527","MEAN_ANOMALY":"292.2060","CENTER_NAME":"EARTH","REV_AT_EPOCH":"4009","NORAD_CAT_ID":"48122","OBJECT_NAME":"STARLINK-2463","TLE_LINE2":"2 48122  53.0551 242.5590 0002420  67.9186 292.2060 15.06403519 40098","SEMIMAJOR_AXIS":"6925.338","FILE":"3243045","OBJECT_TYPE":"PAYLOAD","GP_ID":"191902953","RA_OF_ASC_NODE":"242.5590","OBJECT_ID":"2021-027AG","ARG_OF_PERICENTER":"67.9186","RCS_SIZE":"LARGE","CLASSIFICATION_TYPE":"U"}];
